{
  "type": "FeatureCollection",
  "features": [
    {
      "type": "Feature",
      "geometry": {
        "type": "Point",
        "coordinates": [
          -15.601743339600509,
          28.636686155607087
        ]
      },
      "properties": {
        "entity_id": "PEGVALFW",
        "status": "Activo",
        "verified": "Sí",
        "license": "Licencia desconocida",
        "source": "Formulario de inscripción",
        "date_created": "2026-08-10T10:01:39.000Z",
        "date_revised": "2026-08-16T15:58:38.947Z",
        "name": "Archipiélago Vivo",
        "format": "Proyecto",
        "category": "Cultura, Innovación, Participación ciudadana, Sostenibilidad, Tecnología",
        "tags": "mapa colaborativo, Canarias, redes comunitarias, territorio, participación ciudadana, tejido social, colaboración, iniciativas locales, conocimiento abierto, directorio, comunidad, sostenibilidad, cultura, voluntariado",
        "mission": "Conectamos y visibilizamos personas, colectivos e iniciativas que cuidan, construyen, defienden y transforman Canarias.",
        "description": "Archipiélago Vivo es una iniciativa colaborativa que busca poner en común y hacer visible el tejido social, cultural, comunitario y ambiental de Canarias.\n\nCreamos herramientas para descubrir personas, colectivos, proyectos, espacios e iniciativas del Archipiélago, conocer qué hacen, dónde están y de qué manera podemos participar, colaborar o apoyarnos mutuamente.\n\nNuestro punto de partida es un mapa y directorio colaborativo, pero el objetivo va más allá de localizar iniciativas: queremos facilitar conexiones, compartir recursos, hacer circular conocimiento y fortalecer redes entre quienes trabajan por unas islas más vivas, diversas, sostenibles y conectadas.\n\nArchipiélago Vivo se construye desde el territorio y de forma abierta, procurando que sean las propias personas y comunidades quienes expliquen quiénes son, qué hacen y qué necesitan, evitando hablar por ellas o reducir la realidad de Canarias a una mirada institucional, turística o externa.",
        "activity": "Diseño, Divulgación, Documentación, Publicación, Voluntariado",
        "audience": "Administraciones públicas, Artistas, Colectivos vecinales, Comunidad educativa, Empresas, Profesionales, Público general",
        "territory": "6 - Canarias",
        "founded": "2026",
        "needs": "Colaboración técnica, Desarrollo web, Difusión, Diseño gráfico, Documentación, Financiación, Investigación, Socios, Traducción, Vídeo, Voluntariado",
        "offers": "Asesoramiento, Investigación, Material documental, Publicaciones, Recursos educativos, Red de contactos",
        "img": "https://img.archipielagovivo.org/PEGVALFW/logo.webp",
        "url": "https://archipielagovivo.org/",
        "email": "archipielagovivo@riseup.net",
        "video": "https://youtube.com/shorts/KcPMjTu0Z3E?feature=share",
        "bsky": "@archplgvivo.bsky.social",
        "github": "ArchipielagoVivo",
        "instagram": "@archplgvivo",
        "mastodon": "@archplgvivo",
        "pixelfed": "@archplgvivo",
        "threads": "@archplgvivo",
        "x": "@ArchplgVivo",
        "youtube": "@ArchplgVivo",
        "island": "Canarias",
        "links": "🌐 [[https://archipielagovivo.org/|Sitio web]]\n📷 [[https://www.instagram.com/archplgvivo/|Instagram]]\n🦋 [[https://bsky.app/profile/archplgvivo.bsky.social|Bluesky]]\n💻 [[https://github.com/ArchipielagoVivo|GitHub]]\n🧵 [[https://www.threads.net/@archplgvivo|Threads]]\n𝕏 [[https://x.com/ArchplgVivo|X]]\n▶️ [[https://www.youtube.com/@ArchplgVivo|YouTube]]",
        "contact": "✉️ [[mailto:archipielagovivo@riseup.net|archipielagovivo@riseup.net]]",
        "map_url": "https://umap.openstreetmap.fr/es/map/archipielago-vivo_1422295?feature=PEGVALFW"
      }
    },
    {
      "type": "Feature",
      "geometry": {
        "type": "Point",
        "coordinates": [
          -15.794615016588091,
          28.697524801773408
        ]
      },
      "properties": {
        "entity_id": "SRXWGHJA",
        "status": "Activo",
        "verified": "Sí",
        "license": "Licencia desconocida",
        "source": "Formulario de inscripción",
        "date_created": "2026-08-19T09:18:28.932Z",
        "date_revised": "2026-08-20T05:42:10.248Z",
        "name": "Fundación Canaria Tamaimos",
        "format": "Fundación",
        "category": "Arte, Cultura, Deporte, Educación, Gastronomía, Historia, Literatura, Memoria, Patrimonio, Comnicación",
        "tags": "Pensamiento crítico, conocimiento de Canarias, cultura e identidad canaria, divulgación,creación de espacios de reflexión.",
        "mission": "Promover en nuestra sociedad una canariedad consciente que contribuya al bien común.",
        "description": "La Fundación Canaria Tamaimos trabaja por la defensa y promoción de la cultura y la identidad canaria desde el pensamiento crítico y el compromiso con Canarias. Desarrolla proyectos de edición, investigación, divulgación, formación y acción cultural, y apoya iniciativas que contribuyen al conocimiento, la creación y la reflexión sobre las islas.",
        "activity": "Divulgación, Documentación, Comunicación, Edición, Educación, Programación cultural, Organización de eventos, Publicación, Investigación, Activismo",
        "audience": "Público general",
        "territory": "6 - Canarias",
        "founded": "2014",
        "needs": "Asesoramiento técnico, Colaboración artística, Colaboración técnica, Difusión, Documentación, Donaciones, Espacios, Financiación, Investigación, Materiales, Participación, Patrocinios, Socios, Voluntariado",
        "offers": "Asesoramiento, Charlas, Consultoría, Formación, Intercambio de semillas, Red de contactos, Publicaciones, Investigación",
        "url": "https://fundaciontamaimos.org",
        "email": "fundaciontamaimos@gmail.com",
        "video": "https://www.youtube.com/watch?v=U-bIskL_k8g",
        "facebook": "https://www.facebook.com/fundaciontamaimos",
        "instagram": "@tamaimos",
        "whatsapp": "@Tamaimos Canal en WhatsApp",
        "youtube": "@FundaciónCanariaTamaimos",
        "img": "https://img.archipielagovivo.org/SRXWGHJA/logo.webp",
        "island": "Canarias",
        "links": "🌐 [[https://fundaciontamaimos.org|Sitio web]]\n📷 [[https://www.instagram.com/tamaimos/|Instagram]]\n📘 [[https://www.facebook.com/fundaciontamaimos|Facebook]]\n▶️ [[https://www.youtube.com/@Fundaci%C3%B3nCanariaTamaimos|YouTube]]",
        "contact": "✉️ [[mailto:fundaciontamaimos@gmail.com|fundaciontamaimos@gmail.com]]",
        "map_url": "https://umap.openstreetmap.fr/es/map/archipielago-vivo_1422295?feature=SRXWGHJA"
      }
    }
  ],
  "archipielago_vivo": {
    "schema_version": 1,
    "generated_at": "2026-08-20T05:51:24.402Z",
    "layer": "canarias",
    "feature_count": 2,
    "warnings": []
  }
}
