{
  "type": "FeatureCollection",
  "features": [
    {
      "type": "Feature",
      "geometry": {
        "type": "Point",
        "coordinates": [
          -13.92772895,
          28.61023622
        ]
      },
      "properties": {
        "entity_id": "JFUKDKZZ",
        "status": "Activo",
        "verified": "Sí",
        "license": "Licencia desconocida",
        "source": "Formulario de inscripción",
        "date_created": "2026-08-10T12:01:00.000Z",
        "date_revised": "2026-08-14T12:47:19.399Z",
        "name": "FRAGMENTOS",
        "format": "Asociación",
        "category": "Arte, Innovación",
        "tags": "danza experimental, arte experimental, performance, artes escénicas, creación colectiva, expresión artística, investigación artística, talleres, participación",
        "mission": "Crear y compartir experiencias de danza y arte experimental que exploren nuevas formas de expresión, conectando a artistas y público desde la emoción, la autenticidad y la búsqueda artística.",
        "description": "FRAGMENTOS es una asociación sociocultural y artística vinculada a un colectivo de danza experimental de Fuerteventura. Desarrolla actuaciones, espectáculos, performances, actividades y talleres desde la exploración de nuevas formas de hacer y expresar el arte. Su trabajo busca abrir espacios para que artistas y público puedan conectar con aquello que sienten y expresar diferentes formas de mirar, crear y compartir.",
        "activity": "Creación artística, Organización de eventos, Exposición, Formación",
        "audience": "Artistas, Comunidad educativa, Familias, Juventud, Personas adultas, Personas mayores, Profesionales, Público general, Colectivos vecinales",
        "territory": "4 - Isla",
        "founded": "2023",
        "needs": "Colaboración artística, Difusión, Participación",
        "offers": "Formación, Recursos educativos, Talleres",
        "img": "https://img.archipielagovivo.org/JFUKDKZZ/logo.webp",
        "url": "Instagram @fragmentos.experimental",
        "email": "fragmentos.experimental@gmail.com",
        "phone": "697289226",
        "video": "94EwyulpD7s",
        "instagram": "@fragmentos.experimental",
        "whatsapp": 697289226,
        "island": "Fuerteventura",
        "municipality": "La Oliva",
        "links": "📷 [[https://www.instagram.com/fragmentos.experimental/|Instagram]]\n💬 [[https://wa.me/697289226|WhatsApp]]",
        "contact": "✉️ [[mailto:fragmentos.experimental@gmail.com|fragmentos.experimental@gmail.com]]\n☎️ 697289226",
        "map_url": "https://umap.openstreetmap.fr/es/map/archipielago-vivo_1422295?feature=JFUKDKZZ"
      }
    },
    {
      "type": "Feature",
      "geometry": {
        "type": "Point",
        "coordinates": [
          -13.85971312,
          28.4987677
        ]
      },
      "properties": {
        "entity_id": "JSMMZTQN",
        "status": "Activo",
        "verified": "Sí",
        "license": "Licencia desconocida",
        "source": "Formulario de inscripción",
        "date_created": "2026-08-16T17:34:15.975Z",
        "date_revised": "2026-08-16T17:35:40.948Z",
        "name": "Juego del Palo Maho",
        "format": "Asociación",
        "category": "Arte, Cultura, Deporte, Historia, Patrimonio",
        "tags": "Tradicion patrimonio juego del palo esgrima deportes tradicionales",
        "mission": "Divulgación y promoción del juego del palo Canario.",
        "description": "Nace en 2017 a través de un grupo de amigos, llegamos a fundar a día de hoy 7 escuelas, conseguir un récord guinness, tener un programa de radio, publicar cuentos y un libro, tenemos una linea de investigación y hasta 13 clases semanales.",
        "activity": "Activismo, Conservación, Diseño, Divulgación, Documentación, Edición, Educación, Exposición, Formación, Innovación, Investigación, Organización de eventos, Producción, Programación cultural, Publicación, Servicios, Voluntariado",
        "audience": "Colectivos vecinales, Comunidad educativa, Familias, Infancia, Juventud, Personas adultas, Personas mayores, Público general",
        "territory": "4 - Isla",
        "founded": "2017",
        "needs": "Colaboración artística, Colaboración técnica, Desarrollo web, Diseño gráfico, Documentación, Donaciones, Financiación, Fotografía, Investigación",
        "offers": "Formación, Investigación, Material documental, Publicaciones, Recursos educativos, Talleres",
        "img": "https://img.archipielagovivo.org/JSMMZTQN/logo.webp",
        "url": "Instagram @juegodelpalomaho",
        "email": "Juegodelpalomaho@gmail.com",
        "phone": "606183247",
        "video": "https://www.facebook.com/share/r/1Jmuxfo281/",
        "facebook": "@juegodelpalomaho",
        "instagram": "@juegodelpalomaho",
        "tiktok": "@juegodelpalomaho",
        "whatsapp": 606183247,
        "youtube": "Juegodelpalomaho",
        "island": "Fuerteventura",
        "municipality": "Puerto del Rosario",
        "links": "📷 [[https://www.instagram.com/juegodelpalomaho/|Instagram]]\n📘 [[https://www.facebook.com/juegodelpalomaho|Facebook]]\n🎵 [[https://www.tiktok.com/@juegodelpalomaho|TikTok]]\n💬 [[https://wa.me/606183247|WhatsApp]]\n▶️ [[https://www.youtube.com/@Juegodelpalomaho|YouTube]]",
        "contact": "✉️ [[mailto:Juegodelpalomaho@gmail.com|Juegodelpalomaho@gmail.com]]\n☎️ 606183247",
        "map_url": "https://umap.openstreetmap.fr/es/map/archipielago-vivo_1422295?feature=JSMMZTQN"
      }
    }
  ],
  "archipielago_vivo": {
    "schema_version": 1,
    "generated_at": "2026-08-16T23:55:01.165Z",
    "layer": "fuerteventura",
    "feature_count": 2,
    "warnings": [
      {
        "entity_id": "YQAFAJLC",
        "message": "No existe capa pública para island=\"\"."
      }
    ]
  }
}
