{
  "type": "FeatureCollection",
  "features": [
    {
      "type": "Feature",
      "geometry": {
        "type": "Point",
        "coordinates": [
          -16.41849115,
          28.34018567
        ]
      },
      "properties": {
        "entity_id": "FXZLRGJA",
        "status": "Activo",
        "verified": "Sí",
        "license": "Licencia desconocida",
        "source": "Formulario de inscripción",
        "date_created": "2026-08-10T13:25:41.000Z",
        "date_revised": "2026-08-14T11:39:28.843Z",
        "name": "Asociación El Carmen se Mueve",
        "format": "Asociación",
        "category": "Cultura, Educación, Participación ciudadana",
        "tags": "inclusión social, infancia, juventud, familias, personas mayores, discapacidad, voluntariado, formación, ocio educativo, participación ciudadana, empoderamiento vecinal, envejecimiento activo, accesibilidad, baño adaptado, acción comunitaria, redes comunitarias",
        "mission": "Trabajar por una comunidad más inclusiva, participativa y solidaria, desarrollando proyectos sociales dirigidos a la infancia, la juventud, las familias, las personas mayores y las personas con discapacidad, y promoviendo la participación, la igualdad de oportunidades y el empoderamiento vecinal.",
        "description": "Mi Barrio El Carmen Se Mueve trabaja por una sociedad más inclusiva, participativa y solidaria mediante proyectos sociales dirigidos a la infancia, la juventud, las familias, las personas mayores y las personas con discapacidad. Desarrolla su actividad en Arafo, Güímar y Candelaria, promoviendo la inclusión social, la participación ciudadana, el voluntariado y la formación y el ocio educativo.\n\nEntre sus líneas de trabajo se encuentran proyectos de inclusión, juventud y familias, envejecimiento activo, discapacidad, participación comunitaria y actividades educativas y de ocio.",
        "activity": "Acompañamiento, Activismo, Conservación, Divulgación, Exposición, Organización de eventos",
        "audience": "Colectivos vecinales, Familias, Infancia, Juventud, Personas adultas, Público general",
        "territory": "3 - Comarca",
        "founded": "2011",
        "needs": "Colaboración artística, Colaboración técnica, Financiación, Participación, Patrocinios, Socios",
        "offers": "Asesoramiento, Charlas, Talleres, Visitas, Voluntariado",
        "email": "elcarmensemueve@gmail.com",
        "phone": "616858199 / 614352672",
        "video": "https://www.youtube.com/watch?v=m4LyktnkN_I",
        "facebook": "https://www.facebook.com/mibarrioelcarmensemueve.arafo/",
        "instagram": "@jovenes_sin_etiquetas",
        "img": "https://img.archipielagovivo.org/FXZLRGJA/logo.webp",
        "island": "Tenerife",
        "municipality": "Arafo",
        "links": "📷 [[https://www.instagram.com/jovenes_sin_etiquetas/|Instagram]]\n📘 [[https://www.facebook.com/mibarrioelcarmensemueve.arafo/|Facebook]]",
        "contact": "✉️ [[mailto:elcarmensemueve@gmail.com|elcarmensemueve@gmail.com]]\n☎️ 616858199 / 614352672",
        "map_url": "https://umap.openstreetmap.fr/es/map/archipielago-vivo_1422295?feature=FXZLRGJA"
      }
    },
    {
      "type": "Feature",
      "geometry": {
        "type": "Point",
        "coordinates": [
          -16.59772645656055,
          28.298705775876865
        ]
      },
      "properties": {
        "entity_id": "WCPSPJUL",
        "status": "Activo",
        "verified": "Sí",
        "license": "Licencia desconocida",
        "source": "Formulario de inscripción",
        "date_created": "2026-08-10T17:54:59.986Z",
        "date_revised": "2026-08-14T12:32:58.851Z",
        "name": "Cohousing El Principio",
        "format": "Cooperativa",
        "category": "Arquitectura, Innovación, Sostenibilidad, Participación ciudadana, Urbanismo, Vivienda",
        "tags": "cohousing, vivienda colaborativa, cesión de uso, cuidados, comunidad, envejecimiento activo, autogestión, apoyo mutuo, arquitectura bioclimática",
        "mission": "Construir una comunidad de vivienda colaborativa, intergeneracional y sin ánimo de lucro basada en la ayuda mutua, los cuidados, la autonomía y la convivencia, creando una alternativa al modelo residencial individualizado y favoreciendo un envejecimiento activo y una vida comunitaria sostenible.",
        "description": "Cohousing El Principio es una cooperativa de vivienda colaborativa en Tenerife que desarrolla un proyecto residencial en cesión de uso, basado en la convivencia, la autogestión, el apoyo mutuo y los cuidados. Combina viviendas privadas con espacios y servicios comunes para favorecer las relaciones sociales, prevenir la soledad no deseada y facilitar una vida autónoma durante todo el ciclo vital.\n\nSu propuesta es intergeneracional y pone especial atención en el envejecimiento activo, la adaptación de las viviendas a las necesidades de las personas, la sostenibilidad, la arquitectura bioclimática y el uso de energías renovables. Actualmente trabaja en la adquisición del terreno y en el desarrollo del anteproyecto.",
        "activity": "Acompañamiento, Educación, Formación, Innovación, Servicios, Cuidados",
        "audience": "Familias, Juventud, Personas mayores, Personas adultas, Público general",
        "territory": "4 - Isla",
        "founded": "2021",
        "needs": "Socios, Financiación, Espacios, Difusión",
        "offers": "Asesoramiento, Charlas, Formación, Residencias",
        "img": "https://img.archipielagovivo.org/WCPSPJUL/logo.webp",
        "url": "https://www.cohousingelprincipio.es/",
        "email": "cohousingelprincipio@gmail.com",
        "phone": "653500225",
        "island": "Tenerife",
        "links": "🌐 [[https://www.cohousingelprincipio.es/|Sitio web]]",
        "contact": "✉️ [[mailto:cohousingelprincipio@gmail.com|cohousingelprincipio@gmail.com]]\n☎️ 653500225",
        "map_url": "https://umap.openstreetmap.fr/es/map/archipielago-vivo_1422295?feature=WCPSPJUL"
      }
    },
    {
      "type": "Feature",
      "geometry": {
        "type": "Point",
        "coordinates": [
          -16.37002705,
          28.35523524
        ]
      },
      "properties": {
        "entity_id": "QGWRYNHC",
        "status": "Activo",
        "verified": "Sí",
        "license": "Licencia desconocida",
        "source": "Formulario de inscripción",
        "date_created": "2026-08-10T19:51:11.797Z",
        "date_revised": "2026-08-14T12:55:35.125Z",
        "name": "El Bosque Termófilo",
        "format": "Proyecto",
        "category": "Educación, Sostenibilidad, Biodiversidad, Agricultura",
        "tags": "educación ambiental, flora canaria, agricultura regenerativa, agricultura, sostenibilidad, conocimiento del territorio",
        "mission": "Promover el conocimiento y cuidado de la flora canaria y divulgar prácticas de agricultura regenerativa como herramientas para una relación más consciente y sostenible con el territorio.",
        "description": "El Bosque Termófilo es un proyecto de educación ambiental centrado en la flora canaria y la agricultura regenerativa. Desarrolla actividades de divulgación, educación, formación e investigación para acercar estos conocimientos al público y promover una relación más sostenible con el territorio.",
        "activity": "Agricultura, Divulgación, Educación, Formación, Investigación",
        "audience": "Público general",
        "territory": "6 - Canarias",
        "founded": "2024",
        "needs": "Difusión",
        "offers": "Asesoramiento, Formación, Publicaciones, Recursos educativos",
        "img": "https://img.archipielagovivo.org/QGWRYNHC/logo.webp",
        "email": "elbosquetermofilo@gmail.com",
        "video": "Tengo todos los vídeos en Instagram",
        "instagram": "@el_bosque_termofilo",
        "island": "Tenerife",
        "municipality": "Candelaria",
        "links": "📷 [[https://www.instagram.com/el_bosque_termofilo/|Instagram]]",
        "contact": "✉️ [[mailto:elbosquetermofilo@gmail.com|elbosquetermofilo@gmail.com]]",
        "map_url": "https://umap.openstreetmap.fr/es/map/archipielago-vivo_1422295?feature=QGWRYNHC"
      }
    },
    {
      "type": "Feature",
      "geometry": {
        "type": "Point",
        "coordinates": [
          -16.614355317785453,
          28.298873943004597
        ]
      },
      "properties": {
        "entity_id": "MTWRKGUZ",
        "status": "Activo",
        "verified": "Sí",
        "license": "Licencia desconocida",
        "source": "Formulario de inscripción",
        "date_created": "2026-08-11T09:49:50.423Z",
        "date_revised": "2026-08-20T05:50:24.525Z",
        "name": "VÍCTOR SEUS",
        "format": "Persona",
        "category": "Arte, Cultura, Diseño, Educación, Innovación, Participación ciudadana, Audiovisual, Memoria, Música",
        "tags": "muralismo, arte urbano, arte público, arte contemporáneo, diseño de experiencias, transformación social, educación artística, participación comunitaria, creatividad, infancia, identidad, territorio, intervención artística, procesos colectivos, laboratorios creativos, cultura comunitaria",
        "mission": "Generar transformación social a través del arte, la educación y la participación, creando experiencias que favorezcan el diálogo entre las personas, los lugares y las historias que los habitan.",
        "description": "Soy artista y muralista de Tenerife. Desde 2000 desarrollo una práctica que combina muralismo, obra artística, música y diseño de experiencias. Una parte importante de mi trabajo se desarrolla mediante procesos colectivos y proyectos participativos, educativos y culturales. He desarrollado proyectos en distintos contextos de Europa, África, Sudamérica y Asia, y actualmente continúo desarrollando esta práctica desde Canarias, conectando mi trabajo artístico con nuevos proyectos y experiencias colectivas.",
        "activity": "Activismo, Creación artística, Diseño, Educación, Exposición, Formación, Innovación, Organización de eventos, Producción, Programación cultural, Publicación, Servicios",
        "audience": "Administraciones públicas, Artistas, Colectivos vecinales, Comunidad educativa, Infancia, Familias",
        "territory": "9 - Internacional",
        "founded": "2000",
        "needs": "Colaboración artística, Colaboración técnica, Difusión, Espacios, Financiación, Materiales, Participación, Patrocinios, Vídeo",
        "offers": "Asesoramiento, Charlas, Conciertos, Consultoría, Exposiciones, Formación, Publicaciones, Recursos educativos, Red de contactos, Talleres, Visitas",
        "img": "https://img.archipielagovivo.org/MTWRKGUZ/logo.webp",
        "url": "www.victorseus.com",
        "email": "Victorseus@gmail.com",
        "phone": "+34634810219",
        "video": "https://www.youtube.com/watch?v=ty9sZNmW9oc",
        "facebook": "https://www.facebook.com/share/1LS1nwyKvU/?mibextid=wwXIfr",
        "instagram": "@victorseus",
        "whatsapp": "@victorseus",
        "youtube": "https://m.youtube.com/@victor-seus?ra=m",
        "island": "Tenerife",
        "links": "🌐 [[https://www.victorseus.com|Sitio web]]\n📷 [[https://www.instagram.com/victorseus/|Instagram]]\n📘 [[https://www.facebook.com/share/1LS1nwyKvU/?mibextid=wwXIfr|Facebook]]\n▶️ [[https://m.youtube.com/@victor-seus?ra=m|YouTube]]",
        "contact": "✉️ [[mailto:Victorseus@gmail.com|Victorseus@gmail.com]]\n☎️ +34634810219",
        "map_url": "https://umap.openstreetmap.fr/es/map/archipielago-vivo_1422295?feature=MTWRKGUZ"
      }
    },
    {
      "type": "Feature",
      "geometry": {
        "type": "Point",
        "coordinates": [
          -16.33656444,
          28.52266681
        ]
      },
      "properties": {
        "entity_id": "NGMDUYNK",
        "status": "Activo",
        "verified": "Sí",
        "license": "Licencia desconocida",
        "source": "Formulario de inscripción",
        "date_created": "2026-08-11T16:36:32.413Z",
        "date_revised": "2026-08-16T15:58:45.428Z",
        "name": "Angeles Yanes",
        "format": "Persona",
        "category": "Cultura, Educación, Historia",
        "tags": "Medicina Tradicional Canaria",
        "mission": "Llevo.años investigando y difundiendo la Medicina Tradicional Canaria, para que no se pierda  todo este conocimiento que forma parte de nuestro Pateimonio Inmaterial.",
        "description": "Estudié Enfermería he hice un postgrado en antropología, de siempre tuve curiosidad por la medicina de nuestros ancestros y comenzó a investigar por 3 líneas diferentes. \n- Investigación de campo o etnografiva\n-Investigación documental\n-Investigación práctica, experiencial. \n\nQuiero llevar este proyecto a colegios, ayuntamientos etc... \n\nSoy también docente y doy talleres enseñando el masaje tradicional canario, su historia, sus beneficios etc... \nSoy autónoma y tengo una consulta privada desde hace 5 años y allí acompaño a la gente y enseño a las personas a tener autonomía con respecto a su salud.",
        "activity": "Acompañamiento, Divulgación, Educación, Formación, Investigación",
        "audience": "Administraciones públicas, Colectivos vecinales, Comunidad educativa, Familias, Juventud, Personas adultas, Personas mayores, Profesionales, Público general",
        "territory": "5 - Varias islas",
        "founded": "2020",
        "needs": "Donaciones, Espacios, Financiación",
        "offers": "Asesoramiento, Charlas, Formación, Talleres, Voluntariado",
        "email": "enfermeraantroposofica@gmail.com",
        "phone": "676358954",
        "facebook": "Angeles Yanes",
        "telegram": "@enfermeracurandera",
        "whatsapp": "@enfermeracurandera",
        "img": "https://img.archipielagovivo.org/NGMDUYNK/logo.webp",
        "island": "Tenerife",
        "municipality": "Tegueste",
        "links": "📘 [[https://www.facebook.com/Angeles%20Yanes|Facebook]]\n✈️ [[https://t.me/enfermeracurandera|Telegram]]",
        "contact": "✉️ [[mailto:enfermeraantroposofica@gmail.com|enfermeraantroposofica@gmail.com]]\n☎️ 676358954",
        "map_url": "https://umap.openstreetmap.fr/es/map/archipielago-vivo_1422295?feature=NGMDUYNK"
      }
    },
    {
      "type": "Feature",
      "geometry": {
        "type": "Point",
        "coordinates": [
          -16.31403442,
          28.48720802
        ]
      },
      "properties": {
        "entity_id": "ZCDLDKPD",
        "status": "Activo",
        "verified": "Sí",
        "license": "Licencia desconocida",
        "source": "Formulario de inscripción",
        "date_created": "2026-08-12T21:55:27.455Z",
        "date_revised": "2026-08-16T16:12:59.382Z",
        "name": "Huerto Solidario de Cáritas Diocesana de Tenerife",
        "format": "Proyecto",
        "category": "Agricultura, Educación, Sostenibilidad",
        "tags": "huerto comunitario, agricultura, agricultura sostenible, formación prelaboral, inserción sociolaboral, cuidados, medio ambiente, aprendizaje, hábitos saludables, comunidad",
        "mission": "Favorecer el aprendizaje, los cuidados y la recuperación de hábitos que ayuden a las personas participantes a recuperar confianza y autonomía, combinando el trabajo comunitario en el huerto, la agricultura y el cuidado del medio ambiente.",
        "description": "El Huerto Solidario de Cáritas Diocesana de Tenerife es un proyecto de huerto comunitario y formación prelaboral en el que las personas participantes aprenden sobre agricultura mientras trabajan hábitos y herramientas que pueden ayudarles a recuperar confianza y prepararse para su incorporación al mercado laboral. El proyecto combina aprendizaje, acompañamiento, trabajo comunitario y cuidado del medio ambiente y de las personas participantes.",
        "activity": "Acompañamiento, Agricultura, Educación, Formación",
        "audience": "Administraciones públicas, Comunidad educativa, Juventud, Personas adultas",
        "territory": "4 - Isla",
        "founded": "7 años",
        "needs": "Difusión, Donaciones, Financiación, Participación, Materiales, Voluntariado",
        "offers": "Asesoramiento, Espacios, Intercambio de semillas, Talleres, Visitas, Voluntariado",
        "email": "joseantoniosaiz@caritastenerife.org",
        "phone": "626836408",
        "img": "https://img.archipielagovivo.org/ZCDLDKPD/logo.webp",
        "island": "Tenerife",
        "municipality": "San Cristóbal de La Laguna",
        "links": "",
        "contact": "✉️ [[mailto:joseantoniosaiz@caritastenerife.org|joseantoniosaiz@caritastenerife.org]]\n☎️ 626836408",
        "map_url": "https://umap.openstreetmap.fr/es/map/archipielago-vivo_1422295?feature=ZCDLDKPD"
      }
    },
    {
      "type": "Feature",
      "geometry": {
        "type": "Point",
        "coordinates": [
          -16.589926654033462,
          28.278630897591295
        ]
      },
      "properties": {
        "entity_id": "UHZBLALY",
        "status": "Activo",
        "verified": "Sí",
        "license": "Licencia desconocida",
        "source": "Formulario de inscripción",
        "date_created": "2026-08-14T20:01:09.288Z",
        "date_revised": "2026-08-17T00:29:11.577Z",
        "name": "La Vereda MAYE",
        "format": "Asociación",
        "category": "Agricultura, Biodiversidad, Cultura, Educación, Paisaje, Participación ciudadana, Sostenibilidad",
        "tags": "agroecología, educación ambiental, economía circular, huertos comunitarios, bosques comestibles, biodiversidad, participación ciudadana, saberes locales, territorio, comunidad",
        "mission": "Impulsar proyectos socioambientales que conecten el cuidado del territorio con la participación comunitaria, la agroecología, la educación ambiental y el aprovechamiento sostenible de los recursos.",
        "description": "La Vereda MAYE impulsa en Tenerife proyectos socioambientales orientados al cuidado del territorio y de las comunidades. Trabaja desde la agroecología, la educación ambiental, la participación ciudadana y la economía circular, desarrollando iniciativas vinculadas a huertos comunitarios, bosques comestibles, biodiversidad, recuperación de espacios y aprovechamiento sostenible de los recursos. Su trabajo busca conectar a las personas con su entorno, fortalecer redes comunitarias y poner en valor los saberes locales mediante el aprendizaje colectivo, la inclusión social y la acción ambiental.",
        "activity": "Agricultura, Divulgación, Educación, Gestión comunitaria",
        "audience": "Administraciones públicas, Colectivos vecinales, Familias, Infancia, Juventud, Personas mayores, Personas adultas",
        "territory": "4 - Isla",
        "founded": "2004",
        "needs": "Colaboración técnica, Difusión, Financiación, Materiales, Mentoría, Patrocinios, Socios, Vídeo, Voluntariado",
        "offers": "Formación, Intercambio de semillas, Publicaciones, Recursos educativos, Red de contactos, Talleres, Visitas, Voluntariado",
        "img": "https://img.archipielagovivo.org/UHZBLALY/logo.webp",
        "url": "https://www.lavereda.org",
        "email": "mayetenerife@gmail.com",
        "phone": "664147461",
        "video": "https://youtu.be/0Vk69PfSAp4",
        "facebook": "@Lavereda.maye",
        "instagram": "@lavereda.maye",
        "island": "Tenerife",
        "links": "🌐 [[https://www.lavereda.org|Sitio web]]\n📷 [[https://www.instagram.com/lavereda.maye/|Instagram]]\n📘 [[https://www.facebook.com/Lavereda.maye|Facebook]]",
        "contact": "✉️ [[mailto:mayetenerife@gmail.com|mayetenerife@gmail.com]]\n☎️ 664147461",
        "map_url": "https://umap.openstreetmap.fr/es/map/archipielago-vivo_1422295?feature=UHZBLALY"
      }
    },
    {
      "type": "Feature",
      "geometry": {
        "type": "Point",
        "coordinates": [
          -16.68068896,
          28.09999109
        ]
      },
      "properties": {
        "entity_id": "MUTUUUGK",
        "status": "Activo",
        "verified": "Sí",
        "license": "Licencia desconocida",
        "source": "Formulario de inscripción",
        "date_created": "2026-08-25T09:03:32.179Z",
        "date_revised": "2026-09-08T21:00:39.903Z",
        "name": "Finca Altavista",
        "format": "Proyecto",
        "category": "Agricultura, Biodiversidad, Educación, Medioambiente, Sostenibilidad, Turismo responsable, Vivienda",
        "tags": "Vida Regenerativa, Permacultura, Sistemas Agroforestales, Voluntariado Consciente, Yoga, Santuario de Animales",
        "mission": "Vida regenerativa, permacultura y comunidad en el sur de Tenerife.",
        "description": "Finca Altavista es un espacio dedicado a promover formas de vida regenerativas, sostenibles, orgánicas y comunitarias. Acoge a personas locales y visitantes a través de talleres, estancias, retiros y actividades vinculadas con la permacultura, los sistemas agroforestales, el voluntariado consciente y el cuidado de los animales.",
        "activity": "Agricultura, Educación, Voluntariado",
        "audience": "Familias, Público general, Personas adultas, Turistas",
        "territory": "2 - Municipio",
        "founded": "2017",
        "needs": "Asesoramiento técnico, Desarrollo web, Investigación, Voluntariado",
        "offers": "Charlas, Consultoría, Residencias, Espacios, Talleres, Visitas, Voluntariado",
        "url": "@finca_altavista",
        "email": "amanda.kir@hotmail.com",
        "phone": "602618410",
        "facebook": "https://www.facebook.com/altavista.tenerife",
        "instagram": "@finca_altavista",
        "whatsapp": 602618410,
        "img": "https://img.archipielagovivo.org/MUTUUUGK/logo.webp",
        "island": "Tenerife",
        "municipality": "Arona",
        "links": "📷 [[https://www.instagram.com/finca_altavista/|Instagram]]\n📘 [[https://www.facebook.com/altavista.tenerife|Facebook]]\n💬 [[https://wa.me/34602618410|WhatsApp]]",
        "contact": "✉️ [[mailto:amanda.kir@hotmail.com|amanda.kir@hotmail.com]]\n☎️ 602618410",
        "map_url": "https://umap.openstreetmap.fr/es/map/archipielago-vivo_1422295?feature=MUTUUUGK"
      }
    },
    {
      "type": "Feature",
      "geometry": {
        "type": "Point",
        "coordinates": [
          -16.44083967,
          28.23661835
        ]
      },
      "properties": {
        "entity_id": "TXYCFTQD",
        "status": "Activo",
        "verified": "Sí",
        "license": "Licencia desconocida",
        "source": "Formulario de inscripción",
        "date_created": "2026-08-31T10:05:10.634Z",
        "date_revised": "2026-09-08T21:00:48.904Z",
        "name": "Iru",
        "format": "Persona",
        "category": "Agricultura, Arte, Biodiversidad, Cultura, Defensa del territorio, Deporte, Educación, Gastronomía, Mar, Medioambiente, Música, Paisaje, Sostenibilidad, Turismo responsable",
        "tags": "Agricultura regenerativa, Sintropía, Deporte, Conciencia social, Comunidad, Desarrollo local, Diversidad funcional, Autogestión",
        "mission": "Sintropía y agricultura regenerativa para todxs.",
        "description": "Crear comunidad para avanzar con mayor estabilidad hacia un entorno sustentable que mejore la huella de carbono, la alimentación, la relación con el entorno y la vida y desarrollo de todos los seres.",
        "activity": "Acompañamiento, Agricultura, Conservación, Cuidados, Divulgación, Servicios",
        "audience": "Colectivos vecinales, Comunidad educativa, Familias, Infancia, Juventud, Personas adultas, Personas mayores",
        "territory": "4 - Isla",
        "needs": "Participación",
        "offers": "Charlas, Espacios, Intercambio de semillas, Recursos educativos, Talleres",
        "img": "https://img.archipielagovivo.org/TXYCFTQD/logo.webp",
        "island": "Tenerife",
        "municipality": "Fasnia",
        "links": "",
        "contact": "",
        "map_url": "https://umap.openstreetmap.fr/es/map/archipielago-vivo_1422295?feature=TXYCFTQD"
      }
    },
    {
      "type": "Feature",
      "geometry": {
        "type": "Point",
        "coordinates": [
          -16.77853264,
          28.20927589
        ]
      },
      "properties": {
        "entity_id": "PXXUVUNB",
        "status": "Activo",
        "verified": "Sí",
        "license": "Licencia desconocida",
        "source": "Formulario de inscripción",
        "date_created": "2026-09-01T10:24:07.468Z",
        "date_revised": "2026-09-08T21:00:55.487Z",
        "name": "Cosecha Rescatada",
        "format": "Empresa",
        "category": "Agricultura, Artesanía, Gastronomía",
        "tags": "Desperdicio alimentario, Aprovechamiento alimentario, Fruta canaria, Producto local, Tenerife, Deshidratación, Alimentación saludable, Snack natural, Sin azúcar añadido, Sin conservantes, Sin aditivos, Envase compostable, Economía circular, Sostenibilidad, Agricultura local, Consumo responsable, Producción artesanal",
        "mission": "Dar una segunda vida a frutas canarias que, aunque están en buen estado, podrían ser descartadas por estar demasiado maduras o por criterios estéticos.",
        "description": "Cosecha Rescatada es un proyecto nacido en Tenerife que recupera fruta canaria que no encuentra salida comercial por criterios estéticos o de maduración. Trabaja con productores locales y transforma esta fruta mediante deshidratación lenta, sin azúcar añadido, conservantes ni aditivos, para crear un snack natural y de larga duración presentado en un envase compostable. De esta forma da valor a la producción local, reduce el desperdicio alimentario y fomenta una alimentación más sostenible.",
        "activity": "Agricultura, Artesanía, Comercialización, Producción",
        "audience": "Profesionales, Público general, Turistas",
        "territory": "4 - Isla",
        "founded": "2026",
        "needs": "Colaboración técnica, Difusión, Participación",
        "offers": "Talleres",
        "img": "https://img.archipielagovivo.org/PXXUVUNB/logo.webp",
        "url": "https://cosecharescatada.es",
        "email": "hola@cosecharescatada.es",
        "phone": "673674338",
        "instagram": "@cosecha_rescatada",
        "whatsapp": 34673674338,
        "island": "Tenerife",
        "municipality": "Guía de Isora",
        "links": "🌐 [[https://cosecharescatada.es|Sitio web]]\n📷 [[https://www.instagram.com/cosecha_rescatada/|Instagram]]\n💬 [[https://wa.me/34673674338|WhatsApp]]",
        "contact": "✉️ [[mailto:hola@cosecharescatada.es|hola@cosecharescatada.es]]\n☎️ 673674338",
        "map_url": "https://umap.openstreetmap.fr/es/map/archipielago-vivo_1422295?feature=PXXUVUNB"
      }
    }
  ],
  "archipielago_vivo": {
    "schema_version": 1,
    "generated_at": "2026-09-08T21:20:39.253Z",
    "layer": "tenerife",
    "feature_count": 10,
    "warnings": []
  }
}
